CCSDS_OMM_VERS = 2.0
CREATION_DATE  = 
ORIGINATOR     = 

OBJECT_NAME    = STARLINK-35395
OBJECT_ID      = 2025-232K
CENTER_NAME    = EARTH
REF_FRAME      = TEME
TIME_SYSTEM    = UTC
MEAN_ELEMENT_THEORY = SGP/SGP4

EPOCH          = 2025-11-06T06:00:02.000160
MEAN_MOTION    = 15.49376344
ECCENTRICITY   = .00015406
INCLINATION    = 53.1586
RA_OF_ASC_NODE = 319.6001
ARG_OF_PERICENTER = 80.7695
MEAN_ANOMALY   = 280.5490

EPHEMERIS_TYPE = 0
CLASSIFICATION_TYPE = U
NORAD_CAT_ID   = 66014
ELEMENT_SET_NO = 999
REV_AT_EPOCH   = 367
BSTAR          = -.29223753E-2
MEAN_MOTION_DOT = -.160082E-2
MEAN_MOTION_DDOT = 0

CCSDS_OMM_VERS = 2.0
CREATION_DATE  = 
ORIGINATOR     = 

OBJECT_NAME    = STARLINK-34622
OBJECT_ID      = 2025-232L
CENTER_NAME    = EARTH
REF_FRAME      = TEME
TIME_SYSTEM    = UTC
MEAN_ELEMENT_THEORY = SGP/SGP4

EPOCH          = 2025-11-06T06:00:02.000160
MEAN_MOTION    = 15.49422956
ECCENTRICITY   = .00016411
INCLINATION    = 53.1588
RA_OF_ASC_NODE = 319.5837
ARG_OF_PERICENTER = 76.3192
MEAN_ANOMALY   = 292.6476

EPHEMERIS_TYPE = 0
CLASSIFICATION_TYPE = U
NORAD_CAT_ID   = 66015
ELEMENT_SET_NO = 999
REV_AT_EPOCH   = 357
BSTAR          = -.40047983E-2
MEAN_MOTION_DOT = -.217971E-2
MEAN_MOTION_DDOT = 0

CCSDS_OMM_VERS = 2.0
CREATION_DATE  = 
ORIGINATOR     = 

OBJECT_NAME    = STARLINK-35243
OBJECT_ID      = 2025-232M
CENTER_NAME    = EARTH
REF_FRAME      = TEME
TIME_SYSTEM    = UTC
MEAN_ELEMENT_THEORY = SGP/SGP4

EPOCH          = 2025-11-06T06:00:02.000160
MEAN_MOTION    = 15.49420272
ECCENTRICITY   = .00015873
INCLINATION    = 53.1587
RA_OF_ASC_NODE = 319.5875
ARG_OF_PERICENTER = 77.0311
MEAN_ANOMALY   = 290.0186

EPHEMERIS_TYPE = 0
CLASSIFICATION_TYPE = U
NORAD_CAT_ID   = 66016
ELEMENT_SET_NO = 999
REV_AT_EPOCH   = 368
BSTAR          = -.39283902E-2
MEAN_MOTION_DOT = -.213909E-2
MEAN_MOTION_DDOT = 0

CCSDS_OMM_VERS = 2.0
CREATION_DATE  = 
ORIGINATOR     = 

OBJECT_NAME    = STARLINK-35398
OBJECT_ID      = 2025-232N
CENTER_NAME    = EARTH
REF_FRAME      = TEME
TIME_SYSTEM    = UTC
MEAN_ELEMENT_THEORY = SGP/SGP4

EPOCH          = 2025-11-06T06:00:02.000160
MEAN_MOTION    = 15.45495350
ECCENTRICITY   = .0000738
INCLINATION    = 53.1782
RA_OF_ASC_NODE = 319.5875
ARG_OF_PERICENTER = 88.9659
MEAN_ANOMALY   = 277.9854

EPHEMERIS_TYPE = 0
CLASSIFICATION_TYPE = U
NORAD_CAT_ID   = 66017
ELEMENT_SET_NO = 999
REV_AT_EPOCH   = 360
BSTAR          = -.48990071E-1
MEAN_MOTION_DOT = -.2114338E-1
MEAN_MOTION_DDOT = 0

CCSDS_OMM_VERS = 2.0
CREATION_DATE  = 
ORIGINATOR     = 

OBJECT_NAME    = STARLINK-35376
OBJECT_ID      = 2025-232P
CENTER_NAME    = EARTH
REF_FRAME      = TEME
TIME_SYSTEM    = UTC
MEAN_ELEMENT_THEORY = SGP/SGP4

EPOCH          = 2025-11-06T06:00:02.000160
MEAN_MOTION    = 15.49416274
ECCENTRICITY   = .00016786
INCLINATION    = 53.1588
RA_OF_ASC_NODE = 319.5798
ARG_OF_PERICENTER = 74.0051
MEAN_ANOMALY   = 296.8761

EPHEMERIS_TYPE = 0
CLASSIFICATION_TYPE = U
NORAD_CAT_ID   = 66018
ELEMENT_SET_NO = 999
REV_AT_EPOCH   = 368
BSTAR          = -.38029711E-2
MEAN_MOTION_DOT = -.207241E-2
MEAN_MOTION_DDOT = 0

CCSDS_OMM_VERS = 2.0
CREATION_DATE  = 
ORIGINATOR     = 

OBJECT_NAME    = STARLINK-35382
OBJECT_ID      = 2025-232Q
CENTER_NAME    = EARTH
REF_FRAME      = TEME
TIME_SYSTEM    = UTC
MEAN_ELEMENT_THEORY = SGP/SGP4

EPOCH          = 2025-11-06T06:00:02.000160
MEAN_MOTION    = 15.49532241
ECCENTRICITY   = .00017407
INCLINATION    = 53.1586
RA_OF_ASC_NODE = 319.5913
ARG_OF_PERICENTER = 77.2091
MEAN_ANOMALY   = 287.8829

EPHEMERIS_TYPE = 0
CLASSIFICATION_TYPE = U
NORAD_CAT_ID   = 66019
ELEMENT_SET_NO = 999
REV_AT_EPOCH   = 368
BSTAR          = -.72221941E-2
MEAN_MOTION_DOT = -.385988E-2
MEAN_MOTION_DDOT = 0

CCSDS_OMM_VERS = 2.0
CREATION_DATE  = 
ORIGINATOR     = 

OBJECT_NAME    = STARLINK-35430
OBJECT_ID      = 2025-232R
CENTER_NAME    = EARTH
REF_FRAME      = TEME
TIME_SYSTEM    = UTC
MEAN_ELEMENT_THEORY = SGP/SGP4

EPOCH          = 2025-11-06T06:00:02.000160
MEAN_MOTION    = 15.49368005
ECCENTRICITY   = .00018572
INCLINATION    = 53.1589
RA_OF_ASC_NODE = 319.5680
ARG_OF_PERICENTER = 70.5723
MEAN_ANOMALY   = 306.0684

EPHEMERIS_TYPE = 0
CLASSIFICATION_TYPE = U
NORAD_CAT_ID   = 66020
ELEMENT_SET_NO = 999
REV_AT_EPOCH   = 367
BSTAR          = -.155598E-2
MEAN_MOTION_DOT = -.86222E-3
MEAN_MOTION_DDOT = 0

CCSDS_OMM_VERS = 2.0
CREATION_DATE  = 
ORIGINATOR     = 

OBJECT_NAME    = STARLINK-35432
OBJECT_ID      = 2025-232S
CENTER_NAME    = EARTH
REF_FRAME      = TEME
TIME_SYSTEM    = UTC
MEAN_ELEMENT_THEORY = SGP/SGP4

EPOCH          = 2025-11-06T06:00:02.000160
MEAN_MOTION    = 15.48584219
ECCENTRICITY   = .00013439
INCLINATION    = 53.1591
RA_OF_ASC_NODE = 319.5722
ARG_OF_PERICENTER = 84.6034
MEAN_ANOMALY   = 289.8987

EPHEMERIS_TYPE = 0
CLASSIFICATION_TYPE = U
NORAD_CAT_ID   = 66021
ELEMENT_SET_NO = 999
REV_AT_EPOCH   = 360
BSTAR          = -.43515704E-1
MEAN_MOTION_DOT = -.2095202E-1
MEAN_MOTION_DDOT = 0

CCSDS_OMM_VERS = 2.0
CREATION_DATE  = 
ORIGINATOR     = 

OBJECT_NAME    = STARLINK-35340
OBJECT_ID      = 2025-232T
CENTER_NAME    = EARTH
REF_FRAME      = TEME
TIME_SYSTEM    = UTC
MEAN_ELEMENT_THEORY = SGP/SGP4

EPOCH          = 2025-11-06T06:00:02.000160
MEAN_MOTION    = 15.49313218
ECCENTRICITY   = .00014393
INCLINATION    = 53.1588
RA_OF_ASC_NODE = 319.5630
ARG_OF_PERICENTER = 94.1630
MEAN_ANOMALY   = 284.4392

EPHEMERIS_TYPE = 0
CLASSIFICATION_TYPE = U
NORAD_CAT_ID   = 66022
ELEMENT_SET_NO = 999
REV_AT_EPOCH   = 367
BSTAR          = -.11660157E-2
MEAN_MOTION_DOT = -.64774E-3
MEAN_MOTION_DDOT = 0

CCSDS_OMM_VERS = 2.0
CREATION_DATE  = 
ORIGINATOR     = 

OBJECT_NAME    = STARLINK-35394
OBJECT_ID      = 2025-232U
CENTER_NAME    = EARTH
REF_FRAME      = TEME
TIME_SYSTEM    = UTC
MEAN_ELEMENT_THEORY = SGP/SGP4

EPOCH          = 2025-11-06T06:00:02.000160
MEAN_MOTION    = 15.49374900
ECCENTRICITY   = .00011261
INCLINATION    = 53.1588
RA_OF_ASC_NODE = 319.5590
ARG_OF_PERICENTER = 94.4629
MEAN_ANOMALY   = 286.0321

EPHEMERIS_TYPE = 0
CLASSIFICATION_TYPE = U
NORAD_CAT_ID   = 66023
ELEMENT_SET_NO = 999
REV_AT_EPOCH   = 367
BSTAR          = -.26392282E-2
MEAN_MOTION_DOT = -.14488E-2
MEAN_MOTION_DDOT = 0

CCSDS_OMM_VERS = 2.0
CREATION_DATE  = 
ORIGINATOR     = 

OBJECT_NAME    = STARLINK-35410
OBJECT_ID      = 2025-232V
CENTER_NAME    = EARTH
REF_FRAME      = TEME
TIME_SYSTEM    = UTC
MEAN_ELEMENT_THEORY = SGP/SGP4

EPOCH          = 2025-11-06T06:00:02.000160
MEAN_MOTION    = 15.49315869
ECCENTRICITY   = .00015643
INCLINATION    = 53.1588
RA_OF_ASC_NODE = 319.5510
ARG_OF_PERICENTER = 93.7679
MEAN_ANOMALY   = 290.5878

EPHEMERIS_TYPE = 0
CLASSIFICATION_TYPE = U
NORAD_CAT_ID   = 66024
ELEMENT_SET_NO = 999
REV_AT_EPOCH   = 367
BSTAR          = -.13133554E-2
MEAN_MOTION_DOT = -.72835E-3
MEAN_MOTION_DDOT = 0

CCSDS_OMM_VERS = 2.0
CREATION_DATE  = 
ORIGINATOR     = 

OBJECT_NAME    = STARLINK-35280
OBJECT_ID      = 2025-232W
CENTER_NAME    = EARTH
REF_FRAME      = TEME
TIME_SYSTEM    = UTC
MEAN_ELEMENT_THEORY = SGP/SGP4

EPOCH          = 2025-11-06T06:00:02.000160
MEAN_MOTION    = 15.49313715
ECCENTRICITY   = .00013689
INCLINATION    = 53.1589
RA_OF_ASC_NODE = 319.5548
ARG_OF_PERICENTER = 94.4307
MEAN_ANOMALY   = 288.0078

EPHEMERIS_TYPE = 0
CLASSIFICATION_TYPE = U
NORAD_CAT_ID   = 66025
ELEMENT_SET_NO = 999
REV_AT_EPOCH   = 361
BSTAR          = -.11852295E-2
MEAN_MOTION_DOT = -.65825E-3
MEAN_MOTION_DDOT = 0

