STARLINK-35395          
1 66014U 25232K   25310.25002315 -.00160082  00000+0 -29224-2 0  9999
2 66014  53.1586 319.6001 0001540  80.7695 280.5490 15.49376344  3672
STARLINK-34622          
1 66015U 25232L   25310.25002315 -.00217971  00000+0 -40048-2 0  9997
2 66015  53.1588 319.5837 0001641  76.3192 292.6476 15.49422956  3574
STARLINK-35243          
1 66016U 25232M   25310.25002315 -.00213909  00000+0 -39284-2 0  9995
2 66016  53.1587 319.5875 0001587  77.0311 290.0186 15.49420272  3687
STARLINK-35398          
1 66017U 25232N   25310.25002315 -.02114338  00000+0 -48990-1 0  9997
2 66017  53.1782 319.5875 0000738  88.9659 277.9854 15.45495350  3601
STARLINK-35376          
1 66018U 25232P   25310.25002315 -.00207241  00000+0 -38030-2 0  9997
2 66018  53.1588 319.5798 0001678  74.0051 296.8761 15.49416274  3683
STARLINK-35382          
1 66019U 25232Q   25310.25002315 -.00385988  00000+0 -72222-2 0  9994
2 66019  53.1586 319.5913 0001740  77.2091 287.8829 15.49532241  3688
STARLINK-35430          
1 66020U 25232R   25310.25002315 -.00086222  00000+0 -15560-2 0  9997
2 66020  53.1589 319.5680 0001857  70.5723 306.0684 15.49368005  3678
STARLINK-35432          
1 66021U 25232S   25310.25002315 -.02095202  00000+0 -43516-1 0  9999
2 66021  53.1591 319.5722 0001343  84.6034 289.8987 15.48584219  3603
STARLINK-35340          
1 66022U 25232T   25310.25002315 -.00064774  00000+0 -11660-2 0  9994
2 66022  53.1588 319.5630 0001439  94.1630 284.4392 15.49313218  3670
STARLINK-35394          
1 66023U 25232U   25310.25002315 -.00144880  00000+0 -26392-2 0  9990
2 66023  53.1588 319.5590 0001126  94.4629 286.0321 15.49374900  3675
STARLINK-35410          
1 66024U 25232V   25310.25002315 -.00072835  00000+0 -13134-2 0  9991
2 66024  53.1588 319.5510 0001564  93.7679 290.5878 15.49315869  3677
STARLINK-35280          
1 66025U 25232W   25310.25002315 -.00065825  00000+0 -11852-2 0  9998
2 66025  53.1589 319.5548 0001368  94.4307 288.0078 15.49313715  3614
